CCSDS_OMM_VERS = 2.0
CREATION_DATE  = 
ORIGINATOR     = 

OBJECT_NAME    = CZ-2C R/B
OBJECT_ID      = 2022-132E
CENTER_NAME    = EARTH
REF_FRAME      = TEME
TIME_SYSTEM    = UTC
MEAN_ELEMENT_THEORY = SGP/SGP4

EPOCH          = 2025-12-27T17:26:06.879264
MEAN_MOTION    = 15.55752769
ECCENTRICITY   = .0020517
INCLINATION    = 97.2953
RA_OF_ASC_NODE = 358.2214
ARG_OF_PERICENTER = 5.5557
MEAN_ANOMALY   = 354.5921

EPHEMERIS_TYPE = 0
CLASSIFICATION_TYPE = U
NORAD_CAT_ID   = 54039
ELEMENT_SET_NO = 999
REV_AT_EPOCH   = 17916
BSTAR          = .54665E-3
MEAN_MOTION_DOT = .38042E-3
MEAN_MOTION_DDOT = 0

CCSDS_OMM_VERS = 2.0
CREATION_DATE  = 
ORIGINATOR     = 

OBJECT_NAME    = GSLV R/B
OBJECT_ID      = 2022-138AN
CENTER_NAME    = EARTH
REF_FRAME      = TEME
TIME_SYSTEM    = UTC
MEAN_ELEMENT_THEORY = SGP/SGP4

EPOCH          = 2025-12-27T18:29:37.356000
MEAN_MOTION    = 14.96207956
ECCENTRICITY   = .0023807
INCLINATION    = 87.3824
RA_OF_ASC_NODE = 190.4396
ARG_OF_PERICENTER = 56.4224
MEAN_ANOMALY   = 303.9276

EPHEMERIS_TYPE = 0
CLASSIFICATION_TYPE = U
NORAD_CAT_ID   = 54149
ELEMENT_SET_NO = 999
REV_AT_EPOCH   = 17317
BSTAR          = .24443E-3
MEAN_MOTION_DOT = .2799E-4
MEAN_MOTION_DDOT = 0

CCSDS_OMM_VERS = 2.0
CREATION_DATE  = 
ORIGINATOR     = 

OBJECT_NAME    = XRISM
OBJECT_ID      = 2023-137A
CENTER_NAME    = EARTH
REF_FRAME      = TEME
TIME_SYSTEM    = UTC
MEAN_ELEMENT_THEORY = SGP/SGP4

EPOCH          = 2025-12-27T18:27:56.274048
MEAN_MOTION    = 15.10499509
ECCENTRICITY   = .0007571
INCLINATION    = 31.0032
RA_OF_ASC_NODE = 28.4967
ARG_OF_PERICENTER = 36.9423
MEAN_ANOMALY   = 323.1735

EPHEMERIS_TYPE = 0
CLASSIFICATION_TYPE = U
NORAD_CAT_ID   = 57800
ELEMENT_SET_NO = 999
REV_AT_EPOCH   = 12690
BSTAR          = .42978E-3
MEAN_MOTION_DOT = .7356E-4
MEAN_MOTION_DDOT = 0

CCSDS_OMM_VERS = 2.0
CREATION_DATE  = 
ORIGINATOR     = 

OBJECT_NAME    = ACS3
OBJECT_ID      = 2024-077B
CENTER_NAME    = EARTH
REF_FRAME      = TEME
TIME_SYSTEM    = UTC
MEAN_ELEMENT_THEORY = SGP/SGP4

EPOCH          = 2025-12-27T20:14:45.932352
MEAN_MOTION    = 13.86212590
ECCENTRICITY   = .0073252
INCLINATION    = 97.2572
RA_OF_ASC_NODE = 314.0752
ARG_OF_PERICENTER = 300.8560
MEAN_ANOMALY   = 58.5410

EPHEMERIS_TYPE = 0
CLASSIFICATION_TYPE = U
NORAD_CAT_ID   = 59588
ELEMENT_SET_NO = 999
REV_AT_EPOCH   = 8423
BSTAR          = .25379E-1
MEAN_MOTION_DOT = .30004E-3
MEAN_MOTION_DDOT = 0

CCSDS_OMM_VERS = 2.0
CREATION_DATE  = 
ORIGINATOR     = 

OBJECT_NAME    = SZ-21 MODULE
OBJECT_ID      = 2025-246C
CENTER_NAME    = EARTH
REF_FRAME      = TEME
TIME_SYSTEM    = UTC
MEAN_ELEMENT_THEORY = SGP/SGP4

EPOCH          = 2025-12-27T11:48:49.053024
MEAN_MOTION    = 15.63283022
ECCENTRICITY   = .0004075
INCLINATION    = 41.4763
RA_OF_ASC_NODE = 286.0025
ARG_OF_PERICENTER = 340.5581
MEAN_ANOMALY   = 19.5103

EPHEMERIS_TYPE = 0
CLASSIFICATION_TYPE = U
NORAD_CAT_ID   = 66515
ELEMENT_SET_NO = 999
REV_AT_EPOCH   = 675
BSTAR          = .31547E-3
MEAN_MOTION_DOT = .29574E-3
MEAN_MOTION_DDOT = 0

