CZ-2C R/B               
1 54039U 22132E   25361.72646851  .00038042  00000+0  54665-3 0  9992
2 54039  97.2953 358.2214 0020517   5.5557 354.5921 15.55752769179160
GSLV R/B                
1 54149U 22138AN  25361.77057125  .00002799  00000+0  24443-3 0  9996
2 54149  87.3824 190.4396 0023807  56.4224 303.9276 14.96207956173170
XRISM                   
1 57800U 23137A   25361.76940132  .00007356  00000+0  42978-3 0  9998
2 57800  31.0032  28.4967 0007571  36.9423 323.1735 15.10499509126909
ACS3                    
1 59588U 24077B   25361.84358718  .00030004  00000+0  25379-1 0  9999
2 59588  97.2572 314.0752 0073252 300.8560  58.5410 13.86212590 84239
SZ-21 MODULE            
1 66515U 25246C   25361.49223441  .00029574  00000+0  31547-3 0  9997
2 66515  41.4763 286.0025 0004075 340.5581  19.5103 15.63283022  6754
